{
    "links": {
        "self": "http://www.neowsapp.com/rest/v1/neo/3781884?api_key=iIulBulltgU6a56xZRHN4H3l9WmuAYTsLGpBGhQ2"
    },
    "id": "3781884",
    "neo_reference_id": "3781884",
    "name": "(2017 SU14)",
    "designation": "2017 SU14",
    "nasa_jpl_url": "http://ssd.jpl.nasa.gov/sbdb.cgi?sstr=3781884",
    "absolute_magnitude_h": 26.0,
    "estimated_diameter": {
        "kilometers": {
            "estimated_diameter_min": 0.0167708462,
            "estimated_diameter_max": 0.0375007522
        },
        "meters": {
            "estimated_diameter_min": 16.7708462163,
            "estimated_diameter_max": 37.5007521798
        },
        "miles": {
            "estimated_diameter_min": 0.0104209175,
            "estimated_diameter_max": 0.0233018799
        },
        "feet": {
            "estimated_diameter_min": 55.0224631002,
            "estimated_diameter_max": 123.0339677816
        }
    },
    "is_potentially_hazardous_asteroid": false,
    "close_approach_data": [
        {
            "close_approach_date": "2017-09-20",
            "close_approach_date_full": "2017-Sep-20 12:07",
            "epoch_date_close_approach": 1505909220000,
            "relative_velocity": {
                "kilometers_per_second": "10.2155683068",
                "kilometers_per_hour": "36776.0459046218",
                "miles_per_hour": "22851.2047455691"
            },
            "miss_distance": {
                "astronomical": "0.0291319765",
                "lunar": "11.3323388585",
                "kilometers": "4358081.633290055",
                "miles": "2707986.355930559"
            },
            "orbiting_body": "Earth"
        }
    ],
    "orbital_data": {
        "orbit_id": "3",
        "orbit_determination_date": "2017-10-01 06:50:21",
        "first_observation_date": "2017-09-24",
        "last_observation_date": "2017-09-30",
        "data_arc_in_days": 6,
        "observations_used": 43,
        "orbit_uncertainty": "8",
        "minimum_orbit_intersection": ".0275063",
        "jupiter_tisserand_invariant": "3.561",
        "epoch_osculation": "2458021.5",
        "eccentricity": ".5345569392719224",
        "semi_major_axis": "2.082396809337087",
        "inclination": "6.44911889555058",
        "ascending_node_longitude": "188.1628092107543",
        "orbital_period": "1097.598895603815",
        "perihelion_distance": ".9692371445882371",
        "perihelion_argument": "137.3767112907249",
        "aphelion_distance": "3.195556474085937",
        "perihelion_time": "2457991.565042503635",
        "mean_anomaly": "9.818326842214018",
        "mean_motion": ".3279886682119477",
        "equinox": "J2000",
        "orbit_class": {
            "orbit_class_type": "APO",
            "orbit_class_description": "Near-Earth asteroid orbits which cross the Earth’s orbit similar to that of 1862 Apollo",
            "orbit_class_range": "a (semi-major axis) > 1.0 AU; q (perihelion) < 1.017 AU"
        }
    },
    "is_sentry_object": false
}